NORAD_CAT_ID,OBJECT_NAME,OBJECT_TYPE,EPOCH,MEAN_MOTION,ECCENTRICITY,INCLINATION,RA_OF_ASC_NODE,ARG_OF_PERICENTER,MEAN_ANOMALY,BSTAR,MEAN_MOTION_DOT,MEAN_MOTION_DDOT,TLE_LINE0,TLE_LINE1,TLE_LINE2,SEMIMAJOR_AXIS,PERIOD,APOGEE,PERIGEE,DECAYED
51988.0,STARLINK-3640,PAYLOAD,2024-01-08 07:49:39,15.08844907,0.0001664,53.2193,351.6892,80.3752,279.7428,0.00032735,4.926e-05,0.0,0 STARLINK-3640,1 51988U 22025AJ  24008.32615675  .00004926  00000-0  32735-3 0  9995,2 51988  53.2193 351.6892 0001664  80.3752 279.7428 15.08844907101593,6917.865,95.437,540.882,538.579,0.0
51988.0,STARLINK-3640,PAYLOAD,2024-01-09 02:54:17,15.08851164,0.0001593,53.2189,348.1153,91.2062,268.9113,2.6298e-05,1.31e-06,0.0,0 STARLINK-3640,1 51988U 22025AJ  24009.12103669  .00000131  00000-0  26298-4 0  9991,2 51988  53.2189 348.1153 0001593  91.2062 268.9113 15.08851164102826,6917.846,95.437,540.813,538.609,0.0
51988.0,STARLINK-3640,PAYLOAD,2024-01-09 07:40:26,15.08853693,0.0001619,53.2193,347.2222,85.4773,274.6404,2.7669e-05,1.52e-06,0.0,0 STARLINK-3640,1 51988U 22025AJ  24009.31975355  .00000152  00000-0  27669-4 0  9997,2 51988  53.2193 347.2222 0001619  85.4773 274.6404 15.08853693101747,6917.839,95.437,540.824,538.584,0.0
51988.0,STARLINK-3640,PAYLOAD,2024-01-10 02:45:04,15.08835635,0.0001965,53.2207,343.6518,95.1186,265.0031,0.00019015,2.739e-05,0.0,0 STARLINK-3640,1 51988U 22025AJ  24010.11463605  .00002739  00000-0  19015-3 0  9995,2 51988  53.2207 343.6518 0001965  95.1186 265.0031 15.08835635102973,6917.894,95.438,541.118,538.399,0.0
51988.0,STARLINK-3640,PAYLOAD,2024-01-10 07:31:13,15.08855918,0.0001882,53.2199,342.7599,88.7901,271.3307,2.8802e-05,1.7e-06,0.0,0 STARLINK-3640,1 51988U 22025AJ  24010.31334720  .00000170  00000-0  28802-4 0  9994,2 51988  53.2199 342.7599 0001882  88.7901 271.3307 15.08855918103000,6917.832,95.437,540.999,538.395,0.0
51988.0,STARLINK-3640,PAYLOAD,2024-01-11 02:35:51,15.08841023,0.0001944,53.2213,339.1847,95.1411,264.9803,3.367e-05,2.48e-06,0.0,0 STARLINK-3640,1 51988U 22025AJ  24011.10823533  .00000248  00000-0  33670-4 0  9992,2 51988  53.2213 339.1847 0001944  95.1411 264.9803 15.08841023103124,6917.877,95.437,541.087,538.397,0.0
51988.0,STARLINK-3640,PAYLOAD,2024-01-11 04:11:14,15.08842635,0.0001994,53.2211,338.8885,98.5282,261.5936,3.7759e-05,3.13e-06,0.0,0 STARLINK-3640,1 51988U 22025AJ  24011.17447383  .00000313  00000-0  37759-4 0  9999,2 51988  53.2211 338.8885 0001994  98.5282 261.5936 15.08842635102026,6917.872,95.437,541.117,538.358,0.0
51988.0,STARLINK-3640,PAYLOAD,2024-01-11 21:40:29,15.08846619,0.000188,53.2195,335.6298,106.4527,253.6672,-2.8265e-05,-7.38e-06,0.0,0 STARLINK-3640,1 51988U 22025AJ  24011.90311560 -.00000738  00000-0 -28265-4 0  9992,2 51988  53.2195 335.6298 0001880 106.4527 253.6672 15.08846619102132,6917.86,95.437,541.026,538.425,0.0
51988.0,STARLINK-3640,PAYLOAD,2024-01-12 04:02:01,15.08844747,0.000185,53.2188,334.4423,105.2105,254.9092,3.2622e-05,2.31e-06,0.0,0 STARLINK-3640,1 51988U 22025AJ  24012.16807457  .00000231  00000-0  32622-4 0  9994,2 51988  53.2188 334.4423 0001850 105.2105 254.9092 15.08844747103284,6917.866,95.437,541.011,538.451,0.0
51988.0,STARLINK-3640,PAYLOAD,2024-01-12 21:31:16,15.08838053,0.0001946,53.2194,331.1734,102.1014,258.0196,9.4775e-05,1.22e-05,0.0,0 STARLINK-3640,1 51988U 22025AJ  24012.89671996  .00001220  00000-0  94775-4 0  9997,2 51988  53.2194 331.1734 0001946 102.1014 258.0196 15.08838053102283,6917.886,95.438,541.098,538.405,0.0
51988.0,STARLINK-3640,PAYLOAD,2024-01-13 03:52:48,15.08846304,0.0001545,53.2178,329.9799,107.2874,252.8287,3.4588e-05,2.63e-06,0.0,0 STARLINK-3640,1 51988U 22025AJ  24013.16167477  .00000263  00000-0  34588-4 0  9994,2 51988  53.2178 329.9799 0001545 107.2874 252.8287 15.08846304102322,6917.861,95.437,540.795,538.657,0.0
51988.0,STARLINK-3640,PAYLOAD,2024-01-14 03:43:35,15.08844591,0.0001494,53.2178,325.5177,98.8301,261.286,6.3047e-05,7.16e-06,0.0,0 STARLINK-3640,1 51988U 22025AJ  24014.15527746  .00000716  00000-0  63047-4 0  9998,2 51988  53.2178 325.5177 0001494  98.8301 261.2860 15.08844591103583,6917.866,95.437,540.765,538.698,0.0
51988.0,STARLINK-3640,PAYLOAD,2024-01-15 03:34:24,15.08819798,0.0002402,53.2185,321.0602,151.4854,208.627,-0.00010589,-1.972e-05,0.0,0 STARLINK-3640,1 51988U 22025AJ  24015.14889418 -.00001972  00000-0 -10589-3 0  9994,2 51988  53.2185 321.0602 0002402 151.4854 208.6270 15.08819798103732,6917.942,95.439,541.469,538.145,0.0
51988.0,STARLINK-3640,PAYLOAD,2024-01-15 06:45:08,15.08860136,0.0001495,53.2184,320.4649,113.5192,246.5957,0.00024314,3.586e-05,0.0,0 STARLINK-3640,1 51988U 22025AJ  24015.28134271  .00003586  00000-0  24314-3 0  9991,2 51988  53.2184 320.4649 0001495 113.5192 246.5957 15.08860136103757,6917.819,95.436,540.718,538.65,0.0
51988.0,STARLINK-3640,PAYLOAD,2024-01-16 00:14:24,15.08831662,0.000161,53.2181,317.1918,113.4036,246.7126,-2.1119e-05,-6.24e-06,0.0,0 STARLINK-3640,1 51988U 22025AJ  24016.01001004 -.00000624  00000-0 -21119-4 0  9993,2 51988  53.2181 317.1918 0001610 113.4036 246.7126 15.08831662103865,6917.906,95.438,540.885,538.657,0.0
51988.0,STARLINK-3640,PAYLOAD,2024-01-16 05:00:32,15.08862496,0.000134,53.2184,316.3022,111.9102,248.2033,-0.00020913,-3.617e-05,0.0,0 STARLINK-3640,1 51988U 22025AJ  24016.20871451 -.00003617  00000-0 -20913-3 0  9990,2 51988  53.2184 316.3022 0001340 111.9102 248.2033 15.08862496103898,6917.812,95.436,540.604,538.75,0.0
51988.0,STARLINK-3640,PAYLOAD,2024-01-17 03:15:56,15.08856485,0.0001502,53.2183,312.1371,97.9022,262.2141,0.00017123,2.439e-05,0.0,0 STARLINK-3640,1 51988U 22025AJ  24017.13607170  .00002439  00000-0  17123-3 0  9996,2 51988  53.2183 312.1371 0001502  97.9022 262.2141 15.08856485104036,6917.83,95.437,540.734,538.656,0.0
51988.0,STARLINK-3640,PAYLOAD,2024-01-18 01:31:22,15.08837284,0.0001656,53.2191,307.9765,94.1358,265.9824,6.3083e-05,7.16e-06,0.0,0 STARLINK-3640,1 51988U 22025AJ  24018.06344952  .00000716  00000-0  63083-4 0  9998,2 51988  53.2191 307.9765 0001656  94.1358 265.9824 15.08837284104174,6917.889,95.438,540.899,538.608,0.0
51988.0,STARLINK-3640,PAYLOAD,2024-01-18 04:42:08,15.08839736,0.0001657,53.2188,307.3772,96.3821,263.736,7.5019e-05,9.06e-06,0.0,0 STARLINK-3640,1 51988U 22025AJ  24018.19592595  .00000906  00000-0  75019-4 0  9993,2 51988  53.2188 307.3772 0001657  96.3821 263.7360 15.08839736103086,6917.881,95.438,540.892,538.6,0.0
51988.0,STARLINK-3640,PAYLOAD,2024-01-18 22:11:22,15.0884617,0.0001775,53.219,304.1066,114.0823,246.0355,-1.2784e-05,-4.92e-06,0.0,0 STARLINK-3640,1 51988U 22025AJ  24018.92456279 -.00000492  00000-0 -12784-4 0  9994,2 51988  53.2190 304.1066 0001775 114.0823 246.0355 15.08846170103191,6917.862,95.437,540.954,538.499,0.0
51988.0,STARLINK-3640,PAYLOAD,2024-01-19 01:22:08,15.08849513,0.0001649,53.218,303.5097,101.0012,259.1165,6.7741e-05,7.9e-06,0.0,0 STARLINK-3640,1 51988U 22025AJ  24019.05704152  .00000790  00000-0  67741-4 0  9997,2 51988  53.2180 303.5097 0001649 101.0012 259.1165 15.08849513104327,6917.851,95.437,540.857,538.576,0.0
51988.0,STARLINK-3640,PAYLOAD,2024-01-19 04:32:54,15.08851041,0.0001708,53.2179,302.9138,108.5796,251.5381,0.00013301,1.83e-05,0.0,0 STARLINK-3640,1 51988U 22025AJ  24019.18952020  .00001830  00000-0  13301-3 0  9998,2 51988  53.2179 302.9138 0001708 108.5796 251.5381 15.08851041103235,6917.847,95.437,540.893,538.53,0.0
51988.0,STARLINK-3640,PAYLOAD,2024-01-19 22:02:09,15.08846316,0.0001925,53.2183,299.6406,119.9117,240.2067,9.7987e-05,1.272e-05,0.0,0 STARLINK-3640,1 51988U 22025AJ  24019.91816109  .00001272  00000-0  97987-4 0  9999,2 51988  53.2183 299.6406 0001925 119.9117 240.2067 15.08846316103341,6917.861,95.437,541.058,538.394,0.0
51988.0,STARLINK-3640,PAYLOAD,2024-01-20 01:12:55,15.08846329,0.000177,53.2183,299.0462,114.5265,245.5912,9.5661e-05,1.235e-05,0.0,0 STARLINK-3640,1 51988U 22025AJ  24020.05064102  .00001235  00000-0  95661-4 0  9990,2 51988  53.2183 299.0462 0001770 114.5265 245.5912 15.08846329104476,6917.861,95.437,540.951,538.502,0.0
51988.0,STARLINK-3640,PAYLOAD,2024-01-20 18:42:10,15.08839471,0.00018,53.2178,295.7805,88.3501,271.7698,-6.3165e-05,-1.293e-05,0.0,0 STARLINK-3640,1 51988U 22025AJ  24020.77928669 -.00001293  00000-0 -63165-4 0  9996,2 51988  53.2178 295.7805 0001800  88.3501 271.7698 15.08839471104583,6917.882,95.438,540.992,538.502,0.0
51988.0,STARLINK-3640,PAYLOAD,2024-01-20 21:52:56,15.08839042,0.0001703,53.2168,295.1864,112.4469,247.6703,-9.1043e-05,-1.737e-05,0.0,0 STARLINK-3640,1 51988U 22025AJ  24020.91176520 -.00001737  00000-0 -91043-4 0  9992,2 51988  53.2168 295.1864 0001703 112.4469 247.6703 15.08839042103497,6917.883,95.438,540.926,538.57,0.0
51988.0,STARLINK-3640,PAYLOAD,2024-01-20 23:28:19,15.08839277,0.0001707,53.2171,294.8892,111.53,248.5874,-8.0103e-05,-1.563e-05,0.0,0 STARLINK-3640,1 51988U 22025AJ  24020.97800520 -.00001563  00000-0 -80103-4 0  9994,2 51988  53.2171 294.8892 0001707 111.5300 248.5874 15.08839277103507,6917.883,95.438,540.928,538.567,0.0
51988.0,STARLINK-3640,PAYLOAD,2024-01-21 21:43:43,15.08841259,0.0001414,53.2178,290.7267,63.0015,297.1122,6.3941e-05,7.3e-06,0.0,0 STARLINK-3640,1 51988U 22025AJ  24021.90536973  .00000730  00000-0  63941-4 0  9990,2 51988  53.2178 290.7267 0001414  63.0015 297.1122 15.08841259103648,6917.877,95.437,540.72,538.763,0.0
51988.0,STARLINK-3640,PAYLOAD,2024-01-22 21:34:31,15.08835419,0.000166,53.2172,286.2652,42.9248,317.1873,0.00010867,1.442e-05,0.0,0 STARLINK-3640,1 51988U 22025AJ  24022.89897622  .00001442  00000-0  10867-3 0  9999,2 51988  53.2172 286.2652 0001660  42.9248 317.1873 15.08835419103790,6917.894,95.438,540.908,538.611,0.0
51988.0,STARLINK-3640,PAYLOAD,2024-01-23 00:45:17,15.08836076,0.0001539,53.2179,285.6717,52.2787,307.8345,0.00011244,1.502e-05,0.0,0 STARLINK-3640,1 51988U 22025AJ  24023.03145589  .00001502  00000-0  11244-3 0  9991,2 51988  53.2179 285.6717 0001539  52.2787 307.8345 15.08836076104925,6917.892,95.438,540.822,538.693,0.0
